FLOCK 3P-11             
1 41975U 17008AD  19282.79381449  .00001353  00000-0  55962-4 0  9992
2 41975  97.3965 348.6019 0009832 102.1056 258.1284 15.25655457146898
FLOCK 3P-60             
1 41976U 17008AE  19282.89766396  .00001489  00000-0  61311-4 0  9997
2 41976  97.3973 348.8183 0009414 103.5141 256.7147 15.25641626146398
FLOCK 3P-58             
1 41977U 17008AF  19283.11640372  .00001643  00000-0  67378-4 0  9990
2 41977  97.3967 348.9333 0009521 102.2191 258.0114 15.25645468147253
FLOCK 3P-57             
1 41978U 17008AG  19282.71247585  .00001708  00000-0  69869-4 0  9994
2 41978  97.3968 348.5591 0009601 101.8236 258.4080 15.25675622147038
FLOCK 3P-75             
1 41979U 17008AH  19283.23430550  .00002352  00000-0  94965-4 0  9990
2 41979  97.3995 349.3813 0009612 104.0318 256.1989 15.25738697147263
FLOCK 3P-70             
1 41980U 17008AJ  19282.77422746  .00001565  00000-0  64205-4 0  9997
2 41980  97.3993 348.9407 0009572 104.6362 255.5938 15.25689180147031
FLOCK 3P-73             
1 41981U 17008AK  19282.89050297  .00002924  00000-0  11388-3 0  9992
2 41981  97.3998 349.3940 0009612 103.8993 256.3315 15.26746120147217
FLOCK 3P-88             
1 41982U 17008AL  19283.23447828  .00002475  00000-0  97088-4 0  9995
2 41982  97.3996 349.8057 0009455 100.8275 259.4028 15.26651906146249
FLOCK 3P-85             
1 41983U 17008AM  19282.85369596  .00002408  00000-0  95331-4 0  9993
2 41983  97.3995 349.4256 0009399 105.4272 254.8005 15.26374164147086
FLOCK 3P-79             
1 41984U 17008AN  19283.41765395  .00001262  00000-0  52430-4 0  9994
2 41984  97.3993 349.6011 0009435 104.6661 255.5624 15.25632967147149
FLOCK 3P-86             
1 41985U 17008AP  19282.63306086  .00001093  00000-0  45809-4 0  9990
2 41985  97.3997 348.8223 0009333 106.5664 253.6600 15.25623099147016
FLOCK 3P-36             
1 41986U 17008AQ  19283.41860099  .00002334  00000-0  94232-4 0  9990
2 41986  97.3980 349.3794 0009244 102.3361 257.8912 15.25744645146626
FLOCK 3P-30             
1 41987U 17008AR  19282.75223439  .00001308  00000-0  54213-4 0  9993
2 41987  97.3976 348.7317 0008913 105.6976 254.5246 15.25640642146992
FLOCK 3P-34             
1 41988U 17008AS  19282.89942035  .00001412  00000-0  58270-4 0  9992
2 41988  97.3972 348.7906 0009216 101.5752 258.6521 15.25652588146541
FLOCK 3P-35             
1 41989U 17008AT  19282.68761591  .00001591  00000-0  64370-4 0  9992
2 41989  97.3969 348.7608 0009133 101.0478 259.1788 15.26142405146527
FLOCK 3P-33             
1 41990U 17008AU  19282.89987225  .00000807  00000-0  34611-4 0  9995
2 41990  97.3971 348.7908 0009078 102.7930 257.4323 15.25556482146545
FLOCK 3P-49             
1 42001U 17008BF  19282.74304249  .00001564  00000-0  64165-4 0  9990
2 42001  97.3970 348.7039 0009551 117.7135 242.5074 15.25695033147042
FLOCK 3P-67             
1 42002U 17008BG  19282.87179440  .00002470  00000-0  96281-4 0  9999
2 42002  97.3969 349.4017 0009178 114.3464 245.8734 15.26868261147267
FLOCK 3P-68             
1 42003U 17008BH  19282.82112871  .00001139  00000-0  47588-4 0  9997
2 42003  97.3966 348.7125 0009582 115.7490 244.4738 15.25633151146850
FLOCK 3P-41             
1 42004U 17008BJ  19282.86224442  .00002445  00000-0  95262-4 0  9993
2 42004  97.3959 349.2406 0009105 115.5936 244.6245 15.26902254147091
FLOCK 3P-45             
1 42005U 17008BK  19282.85560036  .00002373  00000-0  92502-4 0  9999
2 42005  97.3977 349.4453 0009087 116.5911 243.6260 15.26913156147267
FLOCK 3P-48             
1 42006U 17008BL  19282.88019193  .00002378  00000-0  96152-4 0  9996
2 42006  97.3981 348.8652 0009171 118.4116 241.8047 15.25672330147009
FLOCK 3P-43             
1 42007U 17008BM  19282.85670525  .00002349  00000-0  93690-4 0  9998
2 42007  97.3988 348.9023 0008971 118.2988 241.9156 15.26155850147222
FLOCK 3P-42             
1 42008U 17008BN  19282.87592940  .00001046  00000-0  43934-4 0  9994
2 42008  97.3967 348.7820 0009319 117.9652 242.2531 15.25638504147147
FLOCK 3P-61             
1 42009U 17008BP  19282.87405112  .00001179  00000-0  49121-4 0  9990
2 42009  97.3970 348.8099 0009214 119.1404 241.0757 15.25657086147192
FLOCK 3P-40             
1 42010U 17008BQ  19282.67300824  .00001503  00000-0  61861-4 0  9990
2 42010  97.3960 348.5348 0009094 121.9008 238.3116 15.25662570146421
FLOCK 3P-16             
1 42011U 17008BR  19282.88509643  .00002263  00000-0  91946-4 0  9995
2 42011  97.3964 348.7056 0008781 120.6748 239.5357 15.25574562146392
FLOCK 3P-14             
1 42012U 17008BS  19282.87077154  .00001085  00000-0  45368-4 0  9990
2 42012  97.3981 349.0355 0008807 122.4823 237.7268 15.25707832147021
FLOCK 3P-53             
1 42013U 17008BT  19282.84337774  .00002069  00000-0  82658-4 0  9991
2 42013  97.3971 348.9135 0008665 121.1244 239.0846 15.26241594147026
FLOCK 3P-54             
1 42014U 17008BU  19282.86854120  .00001724  00000-0  70502-4 0  9995
2 42014  97.3965 348.7649 0008711 121.8605 238.3482 15.25671610147223
FLOCK 3P-23             
1 42018U 17008BY  19283.12679356  .00001163  00000-0  48466-4 0  9996
2 42018  97.3958 348.8120 0010068  99.4213 260.8164 15.25669381146023
FLOCK 3P-76             
1 42019U 17008BZ  19282.77014285  .00001053  00000-0  44212-4 0  9994
2 42019  97.4000 348.9862 0009759 105.5126 254.7190 15.25643468147035
FLOCK 3P-69             
1 42020U 17008CA  19282.88127941  .00001848  00000-0  74869-4 0  9995
2 42020  97.3998 349.1241 0009515 104.4851 255.7444 15.25891484145943
FLOCK 3P-84             
1 42021U 17008CB  19282.77089972  .00002199  00000-0  88868-4 0  9999
2 42021  97.3995 348.9125 0009855 105.3187 254.9141 15.25776709147048
FLOCK 3P-59             
1 42022U 17008CC  19283.24729931  .00002606  00000-0  10157-3 0  9997
2 42022  97.3970 349.6550 0009097 101.7158 258.5102 15.26820918146171
FLOCK 3P-32             
1 42023U 17008CD  19282.84183022  .00001722  00000-0  70335-4 0  9991
2 42023  97.3965 348.6892 0009495 101.7855 258.4449 15.25710522147217
FLOCK 3P-71             
1 42024U 17008CE  19282.87363562  .00002624  00000-0  10195-3 0  9993
2 42024  97.3973 349.4599 0009420 105.1107 255.1175 15.26924644146128
FLOCK 3P-77             
1 42025U 17008CF  19282.76408570  .00001156  00000-0  48117-4 0  9996
2 42025  97.3997 348.9535 0009579 106.0319 254.1975 15.25720126147046
FLOCK 3P-80             
1 42026U 17008CG  19282.87227939  .00001718  00000-0  70270-4 0  9996
2 42026  97.3992 349.0934 0009223 105.7870 254.4386 15.25673964145203
FLOCK 3P-66             
1 42027U 17008CH  19282.62371047  .00001191  00000-0  49614-4 0  9993
2 42027  97.3969 348.5557 0009612 116.3688 243.8538 15.25636041147130
FLOCK 3P-65             
1 42028U 17008CJ  19283.40986545  .00001611  00000-0  66123-4 0  9997
2 42028  97.3971 349.3521 0009474 114.3495 245.8733 15.25640981147153
FLOCK 3P-50             
1 42029U 17008CK  19282.74973782  .00001636  00000-0  67085-4 0  9998
2 42029  97.3978 348.7445 0009360 117.6313 242.5876 15.25652916146374
FLOCK 3P-52             
1 42030U 17008CL  19282.88214252  .00001450  00000-0  59821-4 0  9998
2 42030  97.3972 348.8265 0009399 116.8146 243.4055 15.25633753147163
FLOCK 3P-46             
1 42031U 17008CM  19282.68065615  .00001057  00000-0  44329-4 0  9994
2 42031  97.3965 348.5764 0009281 117.9324 242.2855 15.25649221147169
FLOCK 3P-47             
1 42032U 17008CN  19282.74678120  .00001210  00000-0  50350-4 0  9995
2 42032  97.3965 348.6386 0009308 118.2042 242.0138 15.25644951147024
FLOCK 3P-44             
1 42033U 17008CP  19282.89982144  .00002444  00000-0  98842-4 0  9994
2 42033  97.3971 348.6614 0009022 121.3990 238.8132 15.25638941145786
FLOCK 3P-64             
1 42034U 17008CQ  19282.87252998  .00001726  00000-0  70587-4 0  9998
2 42034  97.3965 348.7707 0009038 120.5581 239.6550 15.25666020147210
FLOCK 3P-63             
1 42035U 17008CR  19283.11850792  .00002414  00000-0  96893-4 0  9996
2 42035  97.3963 349.0185 0009257 119.4335 240.7829 15.25909662145223
FLOCK 3P-62             
1 42036U 17008CS  19282.85984237  .00002488  00000-0  96596-4 0  9990
2 42036  97.3975 349.5568 0008980 119.3279 240.8858 15.27001696146434
FLOCK 3P-38             
1 42037U 17008CT  19282.86766358  .00002334  00000-0  92258-4 0  9995
2 42037  97.3970 349.0831 0008670 118.8486 241.3624 15.26458863147189
FLOCK 3P-39             
1 42038U 17008CU  19282.86043817  .00001202  00000-0  50024-4 0  9992
2 42038  97.3959 348.7152 0008989 121.0411 239.1711 15.25676207147114
FLOCK 3P-15             
1 42039U 17008CV  19282.82742095  .00002274  00000-0  90071-4 0  9999
2 42039  97.3967 348.9517 0008802 121.0128 239.1976 15.26414086146400
FLOCK 3P-13             
1 42040U 17008CW  19282.85329218  .00002351  00000-0  92674-4 0  9999
2 42040  97.3974 349.1460 0008732 120.3276 239.8828 15.26547672146409
FLOCK 3P-55             
1 42041U 17008CX  19282.84658028  .00001750  00000-0  71481-4 0  9998
2 42041  97.3966 348.8087 0008581 124.1372 236.0681 15.25699138147224
FLOCK 3P-56             
1 42042U 17008CY  19282.83984546  .00002544  00000-0  97906-4 0  9997
2 42042  97.3967 349.8260 0008389 120.1636 240.0435 15.27273494147086
FLOCK 3P-81             
1 42043U 17008CZ  19282.82114686  .00000941  00000-0  39802-4 0  9997
2 42043  97.3995 349.0240 0009705 106.9165 253.3138 15.25629962146393
FLOCK 3P-87             
1 42044U 17008DA  19282.77289939  .00001570  00000-0  64458-4 0  9990
2 42044  97.3985 348.8694 0009777 104.4316 255.8008 15.25669005146534
FLOCK 3P-29             
1 42045U 17008DB  19282.89052201  .00002852  00000-0  11240-3 0  9998
2 42045  97.3963 348.9273 0009345 101.5674 258.6614 15.26369685146414
FLOCK 3P-82             
1 42046U 17008DC  19282.88310184  .00002419  00000-0  94406-4 0  9990
2 42046  97.3998 349.6679 0009425 102.9795 257.2497 15.26849906146490
